ADRAS-J                 
1 58992U 24034A   24106.34081604  .00001959  00000+0  19024-3 0  9997
2 58992  98.2081  76.5652 0042532 255.1073 104.5433 14.93248403  8481
